[{"OBJECT_NAME":"QIANFAN-11","OBJECT_ID":"2024-140L","EPOCH":"2026-03-09T23:20:43.861632","MEAN_MOTION":13.51003917,"ECCENTRICITY":0.00130178,"INCLINATION":88.9648,"RA_OF_ASC_NODE":290.1943,"ARG_OF_PERICENTER":311.0772,"MEAN_ANOMALY":48.9254,"EPHEMERIS_TYPE":0,"CLASSIFICATION_TYPE":"U","NORAD_CAT_ID":60389,"ELEMENT_SET_NO":999,"REV_AT_EPOCH":7889,"BSTAR":9.6664645e-5,"MEAN_MOTION_DOT":7.4e-7,"MEAN_MOTION_DDOT":0},{"OBJECT_NAME":"FENGYUN 1C DEB","OBJECT_ID":"1999-025CPF","EPOCH":"2026-03-08T21:32:59.841312","MEAN_MOTION":13.63405411,"ECCENTRICITY":0.02657413,"INCLINATION":98.3852,"RA_OF_ASC_NODE":216.1135,"ARG_OF_PERICENTER":181.6823,"MEAN_ANOMALY":178.3455,"EPHEMERIS_TYPE":0,"CLASSIFICATION_TYPE":"U","NORAD_CAT_ID":31978,"ELEMENT_SET_NO":999,"REV_AT_EPOCH":92764,"BSTAR":0.0024762842,"MEAN_MOTION_DOT":2.443e-5,"MEAN_MOTION_DDOT":0}]
